start=new Date('2022-05-21T00:00:00.000Z').valueOf();
sats=[{"DECAY_DATE":null,"PERIOD":"95.439","SITE":"AFETR","ELEMENT_SET_NO":"999","FILE":"3454621","INCLINATION":"53.2183","REF_FRAME":"TEME","ARG_OF_PERICENTER":"53.1347","CENTER_NAME":"EARTH","EPOCH":"2022-05-20T14:00:01.000224","MEAN_MOTION":"15.08816819","BSTAR":"0.00172840000000","PERIAPSIS":"538.542","MEAN_MOTION_DOT":"0.00027309","MEAN_ANOMALY":"188.3293","ECCENTRICITY":"0.00018420","TIME_SYSTEM":"UTC","MEAN_MOTION_DDOT":"0.0000000000000","RCS_SIZE":"LARGE","LAUNCH_DATE":"2022-02-21","CLASSIFICATION_TYPE":"U","RA_OF_ASC_NODE":"75.0440","EPHEMERIS_TYPE":"0","MEAN_ELEMENT_THEORY":"SGP4","APOAPSIS":"541.091","SEMIMAJOR_AXIS":"6917.951","REV_AT_EPOCH":"1497","OBJECT_TYPE":"PAYLOAD","COUNTRY_CODE":"US","GP_ID":"204008620","NORAD_CAT_ID":"51735","OBJECT_ID":"2022-016X","TLE_LINE2":"2 51735  53.2183  75.0440 0001842  53.1347 188.3293 15.08816819 14975","TLE_LINE1":"1 51735U 22016X   22140.58334491  .00027309  00000-0  17284-2 0  9993","OBJECT_NAME":"STARLINK-3517"},{"EPOCH":"2022-05-20T14:00:01.000224","MEAN_MOTION":"15.08847015","BSTAR":"-0.00045706000000","MEAN_ANOMALY":"274.3950","MEAN_MOTION_DOT":"-0.00007556","PERIAPSIS":"538.612","SITE":"AFETR","PERIOD":"95.437","DECAY_DATE":null,"ELEMENT_SET_NO":"999","CENTER_NAME":"EARTH","ARG_OF_PERICENTER":"47.0917","REF_FRAME":"TEME","INCLINATION":"53.2129","FILE":"3454893","APOAPSIS":"540.836","MEAN_ELEMENT_THEORY":"SGP4","GP_ID":"204016015","OBJECT_ID":"2022-016Y","NORAD_CAT_ID":"51736","COUNTRY_CODE":"US","OBJECT_TYPE":"PAYLOAD","SEMIMAJOR_AXIS":"6917.859","REV_AT_EPOCH":"1498","TLE_LINE1":"1 51736U 22016Y   22140.58334491 -.00007556  00000-0 -45706-3 0  9999","TLE_LINE2":"2 51736  53.2129  75.0624 0001608  47.0917 274.3950 15.08847015 14984","OBJECT_NAME":"STARLINK-3447","ECCENTRICITY":"0.00016080","TIME_SYSTEM":"UTC","MEAN_MOTION_DDOT":"0.0000000000000","RCS_SIZE":"LARGE","EPHEMERIS_TYPE":"0","RA_OF_ASC_NODE":"75.0624","CLASSIFICATION_TYPE":"U","LAUNCH_DATE":"2022-02-21"},{"EPOCH":"2022-05-20T22:00:00.999936","MEAN_MOTION":"15.08861018","BSTAR":"-0.00234770000000","PERIAPSIS":"538.547","MEAN_MOTION_DOT":"-0.00037479","MEAN_ANOMALY":"216.2893","DECAY_DATE":null,"PERIOD":"95.436","SITE":"AFETR","ELEMENT_SET_NO":"999","FILE":"3455553","REF_FRAME":"TEME","INCLINATION":"53.2128","CENTER_NAME":"EARTH","ARG_OF_PERICENTER":"56.7789","MEAN_ELEMENT_THEORY":"SGP4","APOAPSIS":"540.816","SEMIMAJOR_AXIS":"6917.816","REV_AT_EPOCH":"1496","OBJECT_TYPE":"PAYLOAD","COUNTRY_CODE":"US","GP_ID":"204050292","OBJECT_ID":"2022-016Z","NORAD_CAT_ID":"51737","TLE_LINE2":"2 51737  53.2128  73.5688 0001640  56.7789 216.2893 15.08861018 14965","TLE_LINE1":"1 51737U 22016Z   22140.91667824 -.00037479  00000-0 -23477-2 0  9993","OBJECT_NAME":"STARLINK-3509","ECCENTRICITY":"0.00016400","TIME_SYSTEM":"UTC","MEAN_MOTION_DDOT":"0.0000000000000","RCS_SIZE":"LARGE","CLASSIFICATION_TYPE":"U","LAUNCH_DATE":"2022-02-21","RA_OF_ASC_NODE":"73.5688","EPHEMERIS_TYPE":"0"},{"REV_AT_EPOCH":"1501","SEMIMAJOR_AXIS":"6917.883","OBJECT_TYPE":"PAYLOAD","COUNTRY_CODE":"US","GP_ID":"204050796","NORAD_CAT_ID":"51738","OBJECT_ID":"2022-016AA","MEAN_ELEMENT_THEORY":"SGP4","APOAPSIS":"540.727","OBJECT_NAME":"STARLINK-3515","TLE_LINE2":"2 51738  53.2176  73.5581 0001416  34.4499 338.5949 15.08839173 15017","TLE_LINE1":"1 51738U 22016AA  22140.91667824 -.00004025  00000-0 -23494-3 0  9995","MEAN_MOTION_DDOT":"0.0000000000000","TIME_SYSTEM":"UTC","ECCENTRICITY":"0.00014160","LAUNCH_DATE":"2022-02-21","CLASSIFICATION_TYPE":"U","RA_OF_ASC_NODE":"73.5581","EPHEMERIS_TYPE":"0","RCS_SIZE":"LARGE","MEAN_MOTION":"15.08839173","EPOCH":"2022-05-20T22:00:00.999936","PERIAPSIS":"538.768","MEAN_MOTION_DOT":"-0.00004025","MEAN_ANOMALY":"338.5949","BSTAR":"-0.00023494000000","DECAY_DATE":null,"PERIOD":"95.438","SITE":"AFETR","FILE":"3455553","INCLINATION":"53.2176","REF_FRAME":"TEME","ARG_OF_PERICENTER":"34.4499","CENTER_NAME":"EARTH","ELEMENT_SET_NO":"999"},{"MEAN_ANOMALY":"249.9397","MEAN_MOTION_DOT":"-0.00035496","PERIAPSIS":"538.658","BSTAR":"-0.00222180000000","MEAN_MOTION":"15.08862497","EPOCH":"2022-05-20T14:00:01.000224","CENTER_NAME":"EARTH","ARG_OF_PERICENTER":"51.5342","INCLINATION":"53.2126","REF_FRAME":"TEME","FILE":"3454621","ELEMENT_SET_NO":"999","SITE":"AFETR","PERIOD":"95.436","DECAY_DATE":null,"OBJECT_NAME":"STARLINK-3516","TLE_LINE1":"1 51739U 22016AB  22140.58334491 -.00035496  00000-0 -22218-2 0  9998","TLE_LINE2":"2 51739  53.2126  75.0620 0001473  51.5342 249.9397 15.08862497 14975","GP_ID":"204008971","OBJECT_ID":"2022-016AB","NORAD_CAT_ID":"51739","OBJECT_TYPE":"PAYLOAD","COUNTRY_CODE":"US","SEMIMAJOR_AXIS":"6917.812","REV_AT_EPOCH":"1497","APOAPSIS":"540.696","MEAN_ELEMENT_THEORY":"SGP4","EPHEMERIS_TYPE":"0","RA_OF_ASC_NODE":"75.0620","LAUNCH_DATE":"2022-02-21","CLASSIFICATION_TYPE":"U","RCS_SIZE":"LARGE","TIME_SYSTEM":"UTC","MEAN_MOTION_DDOT":"0.0000000000000","ECCENTRICITY":"0.00014730"},{"MEAN_MOTION_DOT":"-0.00050487","PERIAPSIS":"538.572","MEAN_ANOMALY":"353.2296","BSTAR":"-0.00317420000000","MEAN_MOTION":"15.08865522","EPOCH":"2022-05-20T22:00:00.999936","INCLINATION":"53.2120","REF_FRAME":"TEME","FILE":"3455549","CENTER_NAME":"EARTH","ARG_OF_PERICENTER":"59.8695","ELEMENT_SET_NO":"999","DECAY_DATE":null,"SITE":"AFETR","PERIOD":"95.436","OBJECT_NAME":"STARLINK-3500","TLE_LINE1":"1 51740U 22016AC  22140.91667824 -.00050487  00000-0 -31742-2 0  9995","TLE_LINE2":"2 51740  53.2120  73.5643 0001584  59.8695 353.2296 15.08865522 14973","SEMIMAJOR_AXIS":"6917.802","REV_AT_EPOCH":"1497","GP_ID":"204050301","OBJECT_ID":"2022-016AC","NORAD_CAT_ID":"51740","OBJECT_TYPE":"PAYLOAD","COUNTRY_CODE":"US","APOAPSIS":"540.763","MEAN_ELEMENT_THEORY":"SGP4","RA_OF_ASC_NODE":"73.5643","LAUNCH_DATE":"2022-02-21","CLASSIFICATION_TYPE":"U","EPHEMERIS_TYPE":"0","RCS_SIZE":"LARGE","MEAN_MOTION_DDOT":"0.0000000000000","TIME_SYSTEM":"UTC","ECCENTRICITY":"0.00015840"},{"MEAN_MOTION":"15.08866643","EPOCH":"2022-05-20T14:00:01.000224","MEAN_ANOMALY":"297.7430","MEAN_MOTION_DOT":"-0.00036547","PERIAPSIS":"538.528","BSTAR":"-0.00228820000000","SITE":"AFETR","PERIOD":"95.436","DECAY_DATE":null,"CENTER_NAME":"EARTH","ARG_OF_PERICENTER":"43.7219","INCLINATION":"53.2120","REF_FRAME":"TEME","FILE":"3455160","ELEMENT_SET_NO":"999","NORAD_CAT_ID":"51741","GP_ID":"204043112","OBJECT_ID":"2022-016AD","COUNTRY_CODE":"US","OBJECT_TYPE":"PAYLOAD","REV_AT_EPOCH":"130","SEMIMAJOR_AXIS":"6917.799","APOAPSIS":"540.800","MEAN_ELEMENT_THEORY":"SGP4","OBJECT_NAME":"STARLINK-3520","TLE_LINE1":"1 51741U 22016AD  22140.58334491 -.00036547  00000-0 -22882-2 0  9996","TLE_LINE2":"2 51741  53.2120  75.0619 0001642  43.7219 297.7430 15.08866643  1303","MEAN_MOTION_DDOT":"0.0000000000000","TIME_SYSTEM":"UTC","ECCENTRICITY":"0.00016420","EPHEMERIS_TYPE":"0","RA_OF_ASC_NODE":"75.0619","CLASSIFICATION_TYPE":"U","LAUNCH_DATE":"2022-02-21","RCS_SIZE":"MEDIUM"},{"BSTAR":"-0.00327150000000","PERIAPSIS":"538.490","MEAN_MOTION_DOT":"-0.00052033","MEAN_ANOMALY":"17.2536","EPOCH":"2022-05-20T22:00:00.999936","MEAN_MOTION":"15.08878122","ELEMENT_SET_NO":"999","FILE":"3455549","REF_FRAME":"TEME","INCLINATION":"53.2131","CENTER_NAME":"EARTH","ARG_OF_PERICENTER":"55.8111","DECAY_DATE":null,"PERIOD":"95.435","SITE":"AFETR","TLE_LINE2":"2 51742  53.2131  73.5640 0001647  55.8111  17.2536 15.08878122 15046","TLE_LINE1":"1 51742U 22016AE  22140.91667824 -.00052033  00000-0 -32715-2 0  9997","OBJECT_NAME":"STARLINK-3521","MEAN_ELEMENT_THEORY":"SGP4","APOAPSIS":"540.768","SEMIMAJOR_AXIS":"6917.764","REV_AT_EPOCH":"1504","OBJECT_TYPE":"PAYLOAD","COUNTRY_CODE":"US","OBJECT_ID":"2022-016AE","GP_ID":"204050304","NORAD_CAT_ID":"51742","RCS_SIZE":"LARGE","LAUNCH_DATE":"2022-02-21","CLASSIFICATION_TYPE":"U","RA_OF_ASC_NODE":"73.5640","EPHEMERIS_TYPE":"0","ECCENTRICITY":"0.00016470","TIME_SYSTEM":"UTC","MEAN_MOTION_DDOT":"0.0000000000000"},{"ECCENTRICITY":"0.00012850","TIME_SYSTEM":"UTC","MEAN_MOTION_DDOT":"0.0000000000000","RCS_SIZE":"LARGE","EPHEMERIS_TYPE":"0","RA_OF_ASC_NODE":"65.6911","LAUNCH_DATE":"2022-02-21","CLASSIFICATION_TYPE":"U","APOAPSIS":"452.110","MEAN_ELEMENT_THEORY":"SGP4","GP_ID":"204050801","OBJECT_ID":"2022-016AF","NORAD_CAT_ID":"51743","COUNTRY_CODE":"US","OBJECT_TYPE":"PAYLOAD","REV_AT_EPOCH":"1514","SEMIMAJOR_AXIS":"6829.368","TLE_LINE1":"1 51743U 22016AF  22140.91667824 -.00720286  00000-0 -20375-1 0  9998","TLE_LINE2":"2 51743  53.2176  65.6911 0001285  58.4167 289.4112 15.38268080 15140","OBJECT_NAME":"STARLINK-3512","SITE":"AFETR","PERIOD":"93.612","DECAY_DATE":null,"ELEMENT_SET_NO":"999","ARG_OF_PERICENTER":"58.4167","CENTER_NAME":"EARTH","INCLINATION":"53.2176","REF_FRAME":"TEME","FILE":"3455549","EPOCH":"2022-05-20T22:00:00.999936","MEAN_MOTION":"15.38268080","BSTAR":"-0.02037500000000","MEAN_ANOMALY":"289.4112","MEAN_MOTION_DOT":"-0.00720286","PERIAPSIS":"450.355"},{"PERIAPSIS":"538.563","MEAN_MOTION_DOT":"-0.00012440","MEAN_ANOMALY":"54.5755","BSTAR":"-0.00076500000000","MEAN_MOTION":"15.08832486","EPOCH":"2022-05-20T22:00:00.999936","FILE":"3455604","INCLINATION":"53.2148","REF_FRAME":"TEME","CENTER_NAME":"EARTH","ARG_OF_PERICENTER":"53.4156","ELEMENT_SET_NO":"999","DECAY_DATE":null,"PERIOD":"95.438","SITE":"AFETR","OBJECT_NAME":"STARLINK-3452","TLE_LINE2":"2 51744  53.2148  73.5502 0001743  53.4156  54.5755 15.08832486 14974","TLE_LINE1":"1 51744U 22016AG  22140.91667824 -.00012440  00000-0 -76500-3 0  9998","SEMIMAJOR_AXIS":"6917.903","REV_AT_EPOCH":"1497","OBJECT_TYPE":"PAYLOAD","COUNTRY_CODE":"US","GP_ID":"204051883","OBJECT_ID":"2022-016AG","NORAD_CAT_ID":"51744","MEAN_ELEMENT_THEORY":"SGP4","APOAPSIS":"540.974","CLASSIFICATION_TYPE":"U","LAUNCH_DATE":"2022-02-21","RA_OF_ASC_NODE":"73.5502","EPHEMERIS_TYPE":"0","RCS_SIZE":"LARGE","MEAN_MOTION_DDOT":"0.0000000000000","TIME_SYSTEM":"UTC","ECCENTRICITY":"0.00017430"}];
